SBIRS GEO-3 (USA 282)   
1 43162U 18009A   23066.84402439 -.00000292  00000+0  00000+0 0  9997
2 43162   3.0611 322.7565 0002259  18.1857 267.1719  1.00271809 18838
LEMUR-2-MARSHALL        
1 43165U 18010C   23067.14461407  .00139527  00000+0  28386-2 0  9999
2 43165  82.9101 173.5174 0015439 107.7442 252.5494 15.45637799284918
LEMUR-2-TALLHAMN-ATC    
1 43167U 18010E   23066.76318555  .00092228  00000+0  25686-2 0  9999
2 43167  82.9161 181.8347 0015895 132.9854 227.2726 15.36305590284360
WEINA 1A                
1 43169U 18011A   23066.71428351  .00005238  00000+0  51673-3 0  9994
2 43169  35.0003 187.3524 0002419  91.8893 268.2088 14.91435772278666
YAOGAN-30 K             
1 43170U 18011B   23067.03871688  .00005111  00000+0  50122-3 0  9995
2 43170  34.9982 185.0618 0006559 354.9331   5.1350 14.91663374278717
YAOGAN-30 L             
1 43171U 18011C   23067.03384150  .00005147  00000+0  50503-3 0  9991
2 43171  34.9976 184.9254 0003137  29.8973 330.1922 14.91651334278713
YAOGAN-30 M             
1 43172U 18011D   23067.02832852  .00005102  00000+0  50071-3 0  9999
2 43172  34.9994 185.0861 0003316  84.0300 276.0811 14.91644428278717
AL YAH 3                
1 43174U 18012A   23066.41348862 -.00000155  00000+0  00000+0 0  9994
2 43174   0.1129  96.3688 0002912 270.3831 286.8426  1.00271414 18838
SES-14                  
1 43175U 18012B   23066.47980073 -.00000278  00000+0  00000+0 0  9993
2 43175   0.0149 173.6979 0001153 177.7641 298.7064  1.00267866 19047
KANOPUS-V 3             
1 43180U 18014A   23067.08621660  .00007140  00000+0  32440-3 0  9994
2 43180  97.4210 336.8393 0001727  83.5601  24.9233 15.21066525282587
KANOPUS-V 4             
1 43181U 18014B   23067.05677238  .00007370  00000+0  33444-3 0  9994
2 43181  97.4205 336.8606 0001678  77.8803  17.9345 15.21097686282593
LEMUR-2-JIN-LUEN        
1 43182U 18014C   23066.51930809  .00014270  00000+0  10877-2 0  9992
2 43182  97.6304 330.4705 0017600 137.7711 222.4873 15.02026535278332
LEMUR-2-URAMCHANSOL     
1 43183U 18014D   23066.23407401  .00016441  00000+0  12372-2 0  9993
2 43183  97.6256 330.5162 0017302 130.9529 229.3197 15.02485373278309
LEMUR-2-KADI            
1 43184U 18014E   23066.50261510  .00017433  00000+0  13367-2 0  9990
2 43184  97.6146 330.4309 0016659 115.4056 244.8895 15.01766507278326
