[
  {
    "OBJECT_NAME": "SBIRS GEO-3 (USA 282)",
    "OBJECT_ID": "2018-009A",
    "EPOCH": "2023-03-07T20:15:23.707296",
    "MEAN_MOTION": 1.00271809,
    "ECCENTRICITY": 0.0002259,
    "INCLINATION": 3.0611,
    "RA_OF_ASC_NODE": 322.7565,
    "ARG_OF_PERICENTER": 18.1857,
    "MEAN_ANOMALY": 267.1719,
    "EPHEMERIS_TYPE": 0,
    "CLASSIFICATION_TYPE": "U",
    "NORAD_CAT_ID": 43162,
    "ELEMENT_SET_NO": 999,
    "REV_AT_EPOCH": 1883,
    "BSTAR": 0,
    "MEAN_MOTION_DOT": -2.92e-6,
    "MEAN_MOTION_DDOT": 0
  },
  {
    "OBJECT_NAME": "LEMUR-2-MARSHALL",
    "OBJECT_ID": "2018-010C",
    "EPOCH": "2023-03-08T03:28:14.655648",
    "MEAN_MOTION": 15.45637799,
    "ECCENTRICITY": 0.0015439,
    "INCLINATION": 82.9101,
    "RA_OF_ASC_NODE": 173.5174,
    "ARG_OF_PERICENTER": 107.7442,
    "MEAN_ANOMALY": 252.5494,
    "EPHEMERIS_TYPE": 0,
    "CLASSIFICATION_TYPE": "U",
    "NORAD_CAT_ID": 43165,
    "ELEMENT_SET_NO": 999,
    "REV_AT_EPOCH": 28491,
    "BSTAR": 0.0028386,
    "MEAN_MOTION_DOT": 0.00139527,
    "MEAN_MOTION_DDOT": 0
  },
  {
    "OBJECT_NAME": "LEMUR-2-TALLHAMN-ATC",
    "OBJECT_ID": "2018-010E",
    "EPOCH": "2023-03-07T18:18:59.231520",
    "MEAN_MOTION": 15.3630559,
    "ECCENTRICITY": 0.0015895,
    "INCLINATION": 82.9161,
    "RA_OF_ASC_NODE": 181.8347,
    "ARG_OF_PERICENTER": 132.9854,
    "MEAN_ANOMALY": 227.2726,
    "EPHEMERIS_TYPE": 0,
    "CLASSIFICATION_TYPE": "U",
    "NORAD_CAT_ID": 43167,
    "ELEMENT_SET_NO": 999,
    "REV_AT_EPOCH": 28436,
    "BSTAR": 0.0025686,
    "MEAN_MOTION_DOT": 0.00092228,
    "MEAN_MOTION_DDOT": 0
  },
  {
    "OBJECT_NAME": "WEINA 1A",
    "OBJECT_ID": "2018-011A",
    "EPOCH": "2023-03-07T17:08:34.095264",
    "MEAN_MOTION": 14.91435772,
    "ECCENTRICITY": 0.0002419,
    "INCLINATION": 35.0003,
    "RA_OF_ASC_NODE": 187.3524,
    "ARG_OF_PERICENTER": 91.8893,
    "MEAN_ANOMALY": 268.2088,
    "EPHEMERIS_TYPE": 0,
    "CLASSIFICATION_TYPE": "U",
    "NORAD_CAT_ID": 43169,
    "ELEMENT_SET_NO": 999,
    "REV_AT_EPOCH": 27866,
    "BSTAR": 0.00051673,
    "MEAN_MOTION_DOT": 5.238e-5,
    "MEAN_MOTION_DDOT": 0
  },
  {
    "OBJECT_NAME": "YAOGAN-30 K",
    "OBJECT_ID": "2018-011B",
    "EPOCH": "2023-03-08T00:55:45.138432",
    "MEAN_MOTION": 14.91663374,
    "ECCENTRICITY": 0.0006559,
    "INCLINATION": 34.9982,
    "RA_OF_ASC_NODE": 185.0618,
    "ARG_OF_PERICENTER": 354.9331,
    "MEAN_ANOMALY": 5.135,
    "EPHEMERIS_TYPE": 0,
    "CLASSIFICATION_TYPE": "U",
    "NORAD_CAT_ID": 43170,
    "ELEMENT_SET_NO": 999,
    "REV_AT_EPOCH": 27871,
    "BSTAR": 0.00050122,
    "MEAN_MOTION_DOT": 5.111e-5,
    "MEAN_MOTION_DDOT": 0
  },
  {
    "OBJECT_NAME": "YAOGAN-30 L",
    "OBJECT_ID": "2018-011C",
    "EPOCH": "2023-03-08T00:48:43.905600",
    "MEAN_MOTION": 14.91651334,
    "ECCENTRICITY": 0.0003137,
    "INCLINATION": 34.9976,
    "RA_OF_ASC_NODE": 184.9254,
    "ARG_OF_PERICENTER": 29.8973,
    "MEAN_ANOMALY": 330.1922,
    "EPHEMERIS_TYPE": 0,
    "CLASSIFICATION_TYPE": "U",
    "NORAD_CAT_ID": 43171,
    "ELEMENT_SET_NO": 999,
    "REV_AT_EPOCH": 27871,
    "BSTAR": 0.00050503,
    "MEAN_MOTION_DOT": 5.147e-5,
    "MEAN_MOTION_DDOT": 0
  },
  {
    "OBJECT_NAME": "YAOGAN-30 M",
    "OBJECT_ID": "2018-011D",
    "EPOCH": "2023-03-08T00:40:47.584128",
    "MEAN_MOTION": 14.91644428,
    "ECCENTRICITY": 0.0003316,
    "INCLINATION": 34.9994,
    "RA_OF_ASC_NODE": 185.0861,
    "ARG_OF_PERICENTER": 84.03,
    "MEAN_ANOMALY": 276.0811,
    "EPHEMERIS_TYPE": 0,
    "CLASSIFICATION_TYPE": "U",
    "NORAD_CAT_ID": 43172,
    "ELEMENT_SET_NO": 999,
    "REV_AT_EPOCH": 27871,
    "BSTAR": 0.00050071,
    "MEAN_MOTION_DOT": 5.102e-5,
    "MEAN_MOTION_DDOT": 0
  },
  {
    "OBJECT_NAME": "AL YAH 3",
    "OBJECT_ID": "2018-012A",
    "EPOCH": "2023-03-07T09:55:25.416768",
    "MEAN_MOTION": 1.00271414,
    "ECCENTRICITY": 0.0002912,
    "INCLINATION": 0.1129,
    "RA_OF_ASC_NODE": 96.3688,
    "ARG_OF_PERICENTER": 270.3831,
    "MEAN_ANOMALY": 286.8426,
    "EPHEMERIS_TYPE": 0,
    "CLASSIFICATION_TYPE": "U",
    "NORAD_CAT_ID": 43174,
    "ELEMENT_SET_NO": 999,
    "REV_AT_EPOCH": 1883,
    "BSTAR": 0,
    "MEAN_MOTION_DOT": -1.55e-6,
    "MEAN_MOTION_DDOT": 0
  },
  {
    "OBJECT_NAME": "SES-14",
    "OBJECT_ID": "2018-012B",
    "EPOCH": "2023-03-07T11:30:54.783072",
    "MEAN_MOTION": 1.00267866,
    "ECCENTRICITY": 0.0001153,
    "INCLINATION": 0.0149,
    "RA_OF_ASC_NODE": 173.6979,
    "ARG_OF_PERICENTER": 177.7641,
    "MEAN_ANOMALY": 298.7064,
    "EPHEMERIS_TYPE": 0,
    "CLASSIFICATION_TYPE": "U",
    "NORAD_CAT_ID": 43175,
    "ELEMENT_SET_NO": 999,
    "REV_AT_EPOCH": 1904,
    "BSTAR": 0,
    "MEAN_MOTION_DOT": -2.78e-6,
    "MEAN_MOTION_DDOT": 0
  },
  {
    "OBJECT_NAME": "KANOPUS-V 3",
    "OBJECT_ID": "2018-014A",
    "EPOCH": "2023-03-08T02:04:09.114240",
    "MEAN_MOTION": 15.21066525,
    "ECCENTRICITY": 0.0001727,
    "INCLINATION": 97.421,
    "RA_OF_ASC_NODE": 336.8393,
    "ARG_OF_PERICENTER": 83.5601,
    "MEAN_ANOMALY": 24.9233,
    "EPHEMERIS_TYPE": 0,
    "CLASSIFICATION_TYPE": "U",
    "NORAD_CAT_ID": 43180,
    "ELEMENT_SET_NO": 999,
    "REV_AT_EPOCH": 28258,
    "BSTAR": 0.0003244,
    "MEAN_MOTION_DOT": 7.14e-5,
    "MEAN_MOTION_DDOT": 0
  },
  {
    "OBJECT_NAME": "KANOPUS-V 4",
    "OBJECT_ID": "2018-014B",
    "EPOCH": "2023-03-08T01:21:45.133632",
    "MEAN_MOTION": 15.21097686,
    "ECCENTRICITY": 0.0001678,
    "INCLINATION": 97.4205,
    "RA_OF_ASC_NODE": 336.8606,
    "ARG_OF_PERICENTER": 77.8803,
    "MEAN_ANOMALY": 17.9345,
    "EPHEMERIS_TYPE": 0,
    "CLASSIFICATION_TYPE": "U",
    "NORAD_CAT_ID": 43181,
    "ELEMENT_SET_NO": 999,
    "REV_AT_EPOCH": 28259,
    "BSTAR": 0.00033444,
    "MEAN_MOTION_DOT": 7.37e-5,
    "MEAN_MOTION_DDOT": 0
  },
  {
    "OBJECT_NAME": "LEMUR-2-JIN-LUEN",
    "OBJECT_ID": "2018-014C",
    "EPOCH": "2023-03-07T12:27:48.218976",
    "MEAN_MOTION": 15.02026535,
    "ECCENTRICITY": 0.00176,
    "INCLINATION": 97.6304,
    "RA_OF_ASC_NODE": 330.4705,
    "ARG_OF_PERICENTER": 137.7711,
    "MEAN_ANOMALY": 222.4873,
    "EPHEMERIS_TYPE": 0,
    "CLASSIFICATION_TYPE": "U",
    "NORAD_CAT_ID": 43182,
    "ELEMENT_SET_NO": 999,
    "REV_AT_EPOCH": 27833,
    "BSTAR": 0.0010877,
    "MEAN_MOTION_DOT": 0.0001427,
    "MEAN_MOTION_DDOT": 0
  },
  {
    "OBJECT_NAME": "LEMUR-2-URAMCHANSOL",
    "OBJECT_ID": "2018-014D",
    "EPOCH": "2023-03-07T05:37:03.994464",
    "MEAN_MOTION": 15.02485373,
    "ECCENTRICITY": 0.0017302,
    "INCLINATION": 97.6256,
    "RA_OF_ASC_NODE": 330.5162,
    "ARG_OF_PERICENTER": 130.9529,
    "MEAN_ANOMALY": 229.3197,
    "EPHEMERIS_TYPE": 0,
    "CLASSIFICATION_TYPE": "U",
    "NORAD_CAT_ID": 43183,
    "ELEMENT_SET_NO": 999,
    "REV_AT_EPOCH": 27830,
    "BSTAR": 0.0012372,
    "MEAN_MOTION_DOT": 0.00016441,
    "MEAN_MOTION_DDOT": 0
  },
  {
    "OBJECT_NAME": "LEMUR-2-KADI",
    "OBJECT_ID": "2018-014E",
    "EPOCH": "2023-03-07T12:03:45.944640",
    "MEAN_MOTION": 15.01766507,
    "ECCENTRICITY": 0.0016659,
    "INCLINATION": 97.6146,
    "RA_OF_ASC_NODE": 330.4309,
    "ARG_OF_PERICENTER": 115.4056,
    "MEAN_ANOMALY": 244.8895,
    "EPHEMERIS_TYPE": 0,
    "CLASSIFICATION_TYPE": "U",
    "NORAD_CAT_ID": 43184,
    "ELEMENT_SET_NO": 999,
    "REV_AT_EPOCH": 27832,
    "BSTAR": 0.0013367,
    "MEAN_MOTION_DOT": 0.00017433,
    "MEAN_MOTION_DDOT": 0
  }
]
